{"type": "FeatureCollection", "features": [ {"type": "Feature", "properties": {"norad_id": 34077, "name": "IRIDIUM 33 DEB", "group": "iridium-33-debris", "lat": 67.02134818538974, "lon": 57.59786068501356, "alt_km": 666.2163248668476, "timestamp": "2025-12-18T08:58:43.799710+00:00", "meta": {"OBJECT_NAME": "IRIDIUM 33 DEB", "OBJECT_ID": "1997-051CL", "EPOCH": "2025-12-17T15:21:03.084192", "MEAN_MOTION": 14.64888728, "ECCENTRICITY": 0.00096586, "INCLINATION": 86.3859, "RA_OF_ASC_NODE": 49.3493, "ARG_OF_PERICENTER": 24.1381, "MEAN_ANOMALY": 132.1739, "EPHEMERIS_TYPE": 0, "CLASSIFICATION_TYPE": "U", "NORAD_CAT_ID": 34077, "ELEMENT_SET_NO": 999, "REV_AT_EPOCH": 88404, "BSTAR": 0.0007469396, "MEAN_MOTION_DOT": 4.015e-05, "MEAN_MOTION_DDOT": 0}, "tle": {"line1": "1 34077U 97051CL  25351.63961903  .00004015  00000+0  74694-3 0  9998", "line2": "2 34077  86.3859  49.3493 0009658  24.1381 132.1739 14.64888728884047"}}, "geometry": {"type": "Point", "coordinates": [57.59786068501356, 67.02134818538974]}}, {"type": "Feature", "properties": {"norad_id": 34079, "name": "IRIDIUM 33 DEB", "group": "iridium-33-debris", "lat": 77.94664630303714, "lon": 23.360731358853428, "alt_km": 610.5557684683881, "timestamp": "2025-12-18T08:58:43.799720+00:00", "meta": {"OBJECT_NAME": "IRIDIUM 33 DEB", "OBJECT_ID": "1997-051CN", "EPOCH": "2025-12-17T18:50:10.156992", "MEAN_MOTION": 14.83656312, "ECCENTRICITY": 0.00049485, "INCLINATION": 86.3771, "RA_OF_ASC_NODE": 6.368, "ARG_OF_PERICENTER": 350.7531, "MEAN_ANOMALY": 182.3458, "EPHEMERIS_TYPE": 0, "CLASSIFICATION_TYPE": "U", "NORAD_CAT_ID": 34079, "ELEMENT_SET_NO": 999, "REV_AT_EPOCH": 89052, "BSTAR": 0.0012457741, "MEAN_MOTION_DOT": 0.00010314, "MEAN_MOTION_DDOT": 0}, "tle": {"line1": "1 34079U 97051CN  25351.78483978  .00010314  00000+0  12458-2 0  9995", "line2": "2 34079  86.3771   6.3680 0004948 350.7531 182.3458 14.83656312890523"}}, "geometry": {"type": "Point", "coordinates": [23.360731358853428, 77.94664630303714]}}, {"type": "Feature", "properties": {"norad_id": 34088, "name": "IRIDIUM 33 DEB", "group": "iridium-33-debris", "lat": -29.89309651546036, "lon": 26.052149394365326, "alt_km": 603.2019286131217, "timestamp": "2025-12-18T08:58:43.799730+00:00", "meta": {"OBJECT_NAME": "IRIDIUM 33 DEB", "OBJECT_ID": "1997-051CX", "EPOCH": "2025-12-17T14:19:35.325696", "MEAN_MOTION": 14.91604153, "ECCENTRICITY": 0.00061939, "INCLINATION": 86.3846, "RA_OF_ASC_NODE": 28.4923, "ARG_OF_PERICENTER": 160.6797, "MEAN_ANOMALY": 318.9134, "EPHEMERIS_TYPE": 0, "CLASSIFICATION_TYPE": "U", "NORAD_CAT_ID": 34088, "ELEMENT_SET_NO": 999, "REV_AT_EPOCH": 88814, "BSTAR": 0.0018284036, "MEAN_MOTION_DOT": 0.00018404, "MEAN_MOTION_DDOT": 0}, "tle": {"line1": "1 34088U 97051CX  25351.59693664  .00018404  00000+0  18284-2 0  9990", "line2": "2 34088  86.3846  28.4923 0006193 160.6797 318.9134 14.91604153888145"}}, "geometry": {"type": "Point", "coordinates": [26.052149394365326, -29.89309651546036]}}, {"type": "Feature", "properties": {"norad_id": 34091, "name": "IRIDIUM 33 DEB", "group": "iridium-33-debris", "lat": -35.94419614425254, "lon": 61.595168680029445, "alt_km": 614.0256839169542, "timestamp": "2025-12-18T08:58:43.799741+00:00", "meta": {"OBJECT_NAME": "IRIDIUM 33 DEB", "OBJECT_ID": "1997-051DA", "EPOCH": "2025-12-17T16:56:16.368000", "MEAN_MOTION": 14.82184261, "ECCENTRICITY": 0.00335084, "INCLINATION": 86.3426, "RA_OF_ASC_NODE": 64.5595, "ARG_OF_PERICENTER": 275.1691, "MEAN_ANOMALY": 84.5707, "EPHEMERIS_TYPE": 0, "CLASSIFICATION_TYPE": "U", "NORAD_CAT_ID": 34091, "ELEMENT_SET_NO": 999, "REV_AT_EPOCH": 87940, "BSTAR": 0.0033697127, "MEAN_MOTION_DOT": 0.00027207, "MEAN_MOTION_DDOT": 0}, "tle": {"line1": "1 34091U 97051DA  25351.70574500  .00027207  00000+0  33697-2 0  9990", "line2": "2 34091  86.3426  64.5595 0033508 275.1691  84.5707 14.82184261879408"}}, "geometry": {"type": "Point", "coordinates": [61.595168680029445, -35.94419614425254]}}, {"type": "Feature", "properties": {"norad_id": 34097, "name": "IRIDIUM 33 DEB", "group": "iridium-33-debris", "lat": -25.06252163100981, "lon": -2.8596876188621216, "alt_km": 723.3132985717639, "timestamp": "2025-12-18T08:58:43.799751+00:00", "meta": {"OBJECT_NAME": "IRIDIUM 33 DEB", "OBJECT_ID": "1997-051DG", "EPOCH": "2025-12-17T18:01:48.911520", "MEAN_MOTION": 14.34816781, "ECCENTRICITY": 0.00820362, "INCLINATION": 86.2002, "RA_OF_ASC_NODE": 359.1961, "ARG_OF_PERICENTER": 345.832, "MEAN_ANOMALY": 14.0574, "EPHEMERIS_TYPE": 0, "CLASSIFICATION_TYPE": "U", "NORAD_CAT_ID": 34097, "ELEMENT_SET_NO": 999, "REV_AT_EPOCH": 87191, "BSTAR": 0.0011368894, "MEAN_MOTION_DOT": 3.368e-05, "MEAN_MOTION_DDOT": 0}, "tle": {"line1": "1 34097U 97051DG  25351.75126055  .00003368  00000+0  11369-2 0  9993", "line2": "2 34097  86.2002 359.1961 0082036 345.8320  14.0574 14.34816781871911"}}, "geometry": {"type": "Point", "coordinates": [-2.8596876188621216, -25.06252163100981]}}, {"type": "Feature", "properties": {"norad_id": 34145, "name": "IRIDIUM 33 DEB", "group": "iridium-33-debris", "lat": 35.902764466685156, "lon": -27.232947817097237, "alt_km": 717.7736752664478, "timestamp": "2025-12-18T08:58:43.799762+00:00", "meta": {"OBJECT_NAME": "IRIDIUM 33 DEB", "OBJECT_ID": "1997-051DY", "EPOCH": "2025-12-17T09:30:10.692576", "MEAN_MOTION": 14.42321969, "ECCENTRICITY": 0.00557549, "INCLINATION": 86.2111, "RA_OF_ASC_NODE": 330.4528, "ARG_OF_PERICENTER": 79.0556, "MEAN_ANOMALY": 281.691, "EPHEMERIS_TYPE": 0, "CLASSIFICATION_TYPE": "U", "NORAD_CAT_ID": 34145, "ELEMENT_SET_NO": 999, "REV_AT_EPOCH": 87705, "BSTAR": 0.00088673029, "MEAN_MOTION_DOT": 3.002e-05, "MEAN_MOTION_DDOT": 0}, "tle": {"line1": "1 34145U 97051DY  25351.39595709  .00003002  00000+0  88673-3 0  9991", "line2": "2 34145  86.2111 330.4528 0055754  79.0556 281.6910 14.42321969877056"}}, "geometry": {"type": "Point", "coordinates": [-27.232947817097237, 35.902764466685156]}}, {"type": "Feature", "properties": {"norad_id": 34146, "name": "IRIDIUM 33 DEB", "group": "iridium-33-debris", "lat": 8.981098718252012, "lon": 166.72280154095125, "alt_km": 714.6289325908665, "timestamp": "2025-12-18T08:58:43.799772+00:00", "meta": {"OBJECT_NAME": "IRIDIUM 33 DEB", "OBJECT_ID": "1997-051DZ", "EPOCH": "2025-12-17T18:04:21.043776", "MEAN_MOTION": 14.49082256, "ECCENTRICITY": 0.00259845, "INCLINATION": 86.2829, "RA_OF_ASC_NODE": 347.5858, "ARG_OF_PERICENTER": 204.0117, "MEAN_ANOMALY": 329.0213, "EPHEMERIS_TYPE": 0, "CLASSIFICATION_TYPE": "U", "NORAD_CAT_ID": 34146, "ELEMENT_SET_NO": 999, "REV_AT_EPOCH": 88179, "BSTAR": 0.00069560917, "MEAN_MOTION_DOT": 2.672e-05, "MEAN_MOTION_DDOT": 0}, "tle": {"line1": "1 34146U 97051DZ  25351.75302134  .00002672  00000+0  69561-3 0  9997", "line2": "2 34146  86.2829 347.5858 0025984 204.0117 329.0213 14.49082256881792"}}, "geometry": {"type": "Point", "coordinates": [166.72280154095125, 8.981098718252012]}}, {"type": "Feature", "properties": {"norad_id": 34159, "name": "IRIDIUM 33 DEB", "group": "iridium-33-debris", "lat": 31.89888146472174, "lon": 48.1159678189566, "alt_km": 772.0084371519924, "timestamp": "2025-12-18T08:58:43.799782+00:00", "meta": {"OBJECT_NAME": "IRIDIUM 33 DEB", "OBJECT_ID": "1997-051EN", "EPOCH": "2025-12-17T14:27:59.153472", "MEAN_MOTION": 14.38505774, "ECCENTRICITY": 0.00259211, "INCLINATION": 86.3501, "RA_OF_ASC_NODE": 46.1679, "ARG_OF_PERICENTER": 270.5644, "MEAN_ANOMALY": 89.2584, "EPHEMERIS_TYPE": 0, "CLASSIFICATION_TYPE": "U", "NORAD_CAT_ID": 34159, "ELEMENT_SET_NO": 999, "REV_AT_EPOCH": 88029, "BSTAR": 0.00031875512, "MEAN_MOTION_DOT": 9.96e-06, "MEAN_MOTION_DDOT": 0}, "tle": {"line1": "1 34159U 97051EN  25351.60276798  .00000996  00000+0  31876-3 0  9996", "line2": "2 34159  86.3501  46.1679 0025921 270.5644  89.2584 14.38505774880294"}}, "geometry": {"type": "Point", "coordinates": [48.1159678189566, 31.89888146472174]}}, {"type": "Feature", "properties": {"norad_id": 34350, "name": "IRIDIUM 33 DEB", "group": "iridium-33-debris", "lat": -20.538117015226828, "lon": -178.2588706647036, "alt_km": 743.9324669226289, "timestamp": "2025-12-18T08:58:43.799792+00:00", "meta": {"OBJECT_NAME": "IRIDIUM 33 DEB", "OBJECT_ID": "1997-051ES", "EPOCH": "2025-12-17T12:40:13.196928", "MEAN_MOTION": 14.45397938, "ECCENTRICITY": 0.00231831, "INCLINATION": 86.3272, "RA_OF_ASC_NODE": 0.7293, "ARG_OF_PERICENTER": 120.4242, "MEAN_ANOMALY": 359.5053, "EPHEMERIS_TYPE": 0, "CLASSIFICATION_TYPE": "U", "NORAD_CAT_ID": 34350, "ELEMENT_SET_NO": 999, "REV_AT_EPOCH": 88362, "BSTAR": 0.00027248042, "MEAN_MOTION_DOT": 9.81e-06, "MEAN_MOTION_DDOT": 0}, "tle": {"line1": "1 34350U 97051ES  25351.52793052  .00000981  00000+0  27248-3 0  9999", "line2": "2 34350  86.3272   0.7293 0023183 120.4242 359.5053 14.45397938883628"}}, "geometry": {"type": "Point", "coordinates": [-178.2588706647036, -20.538117015226828]}}, {"type": "Feature", "properties": {"norad_id": 34366, "name": "IRIDIUM 33 DEB", "group": "iridium-33-debris", "lat": -16.113726861089294, "lon": 45.81246338756704, "alt_km": 729.1996965061526, "timestamp": "2025-12-18T08:58:43.799803+00:00", "meta": {"OBJECT_NAME": "IRIDIUM 33 DEB", "OBJECT_ID": "1997-051FJ", "EPOCH": "2025-12-17T15:27:08.430048", "MEAN_MOTION": 14.54097613, "ECCENTRICITY": 0.00228439, "INCLINATION": 86.3698, "RA_OF_ASC_NODE": 47.1809, "ARG_OF_PERICENTER": 124.3183, "MEAN_ANOMALY": 359.4993, "EPHEMERIS_TYPE": 0, "CLASSIFICATION_TYPE": "U", "NORAD_CAT_ID": 34366, "ELEMENT_SET_NO": 999, "REV_AT_EPOCH": 88253, "BSTAR": 0.00072705325, "MEAN_MOTION_DOT": 3.101e-05, "MEAN_MOTION_DDOT": 0}, "tle": {"line1": "1 34366U 97051FJ  25351.64384757  .00003101  00000+0  72705-3 0  9992", "line2": "2 34366  86.3698  47.1809 0022843 124.3183 359.4993 14.54097613882532"}}, "geometry": {"type": "Point", "coordinates": [45.81246338756704, -16.113726861089294]}}]}